CCSDS_OMM_VERS = 2.0
CREATION_DATE  = 
ORIGINATOR     = 

OBJECT_NAME    = STARLINK-35526
OBJECT_ID      = 2025-225X
CENTER_NAME    = EARTH
REF_FRAME      = TEME
TIME_SYSTEM    = UTC
MEAN_ELEMENT_THEORY = SGP/SGP4

EPOCH          = 2025-10-27T20:42:53.427168
MEAN_MOTION    = 15.72915297
ECCENTRICITY   = .0000564
INCLINATION    = 53.1599
RA_OF_ASC_NODE = 66.0723
ARG_OF_PERICENTER = 149.2734
MEAN_ANOMALY   = 210.8318

EPHEMERIS_TYPE = 0
CLASSIFICATION_TYPE = U
NORAD_CAT_ID   = 65931
ELEMENT_SET_NO = 999
REV_AT_EPOCH   = 402
BSTAR          = -.54807E-2
MEAN_MOTION_DOT = -.700118E-2
MEAN_MOTION_DDOT = 0

CCSDS_OMM_VERS = 2.0
CREATION_DATE  = 
ORIGINATOR     = 

OBJECT_NAME    = STARLINK-35436
OBJECT_ID      = 2025-225Y
CENTER_NAME    = EARTH
REF_FRAME      = TEME
TIME_SYSTEM    = UTC
MEAN_ELEMENT_THEORY = SGP/SGP4

EPOCH          = 2025-10-27T20:42:23.195808
MEAN_MOTION    = 15.73218229
ECCENTRICITY   = .0002551
INCLINATION    = 53.1595
RA_OF_ASC_NODE = 66.0712
ARG_OF_PERICENTER = 80.5712
MEAN_ANOMALY   = 279.5596

EPHEMERIS_TYPE = 0
CLASSIFICATION_TYPE = U
NORAD_CAT_ID   = 65932
ELEMENT_SET_NO = 999
REV_AT_EPOCH   = 402
BSTAR          = -.14136E-2
MEAN_MOTION_DOT = -.194702E-2
MEAN_MOTION_DDOT = 0

CCSDS_OMM_VERS = 2.0
CREATION_DATE  = 
ORIGINATOR     = 

OBJECT_NAME    = STARLINK-35192
OBJECT_ID      = 2025-225Z
CENTER_NAME    = EARTH
REF_FRAME      = TEME
TIME_SYSTEM    = UTC
MEAN_ELEMENT_THEORY = SGP/SGP4

EPOCH          = 2025-10-27T17:37:56.074656
MEAN_MOTION    = 15.73326804
ECCENTRICITY   = .0001916
INCLINATION    = 53.1599
RA_OF_ASC_NODE = 66.6926
ARG_OF_PERICENTER = 34.1959
MEAN_ANOMALY   = 325.9183

EPHEMERIS_TYPE = 0
CLASSIFICATION_TYPE = U
NORAD_CAT_ID   = 65933
ELEMENT_SET_NO = 999
REV_AT_EPOCH   = 400
BSTAR          = -.52715E-2
MEAN_MOTION_DOT = -.686836E-2
MEAN_MOTION_DDOT = 0

CCSDS_OMM_VERS = 2.0
CREATION_DATE  = 
ORIGINATOR     = 

OBJECT_NAME    = STARLINK-33921
OBJECT_ID      = 2025-225AA
CENTER_NAME    = EARTH
REF_FRAME      = TEME
TIME_SYSTEM    = UTC
MEAN_ELEMENT_THEORY = SGP/SGP4

EPOCH          = 2025-10-27T20:41:53.519136
MEAN_MOTION    = 15.72951301
ECCENTRICITY   = .0004292
INCLINATION    = 53.1595
RA_OF_ASC_NODE = 66.0692
ARG_OF_PERICENTER = 208.2132
MEAN_ANOMALY   = 151.8655

EPHEMERIS_TYPE = 0
CLASSIFICATION_TYPE = U
NORAD_CAT_ID   = 65934
ELEMENT_SET_NO = 999
REV_AT_EPOCH   = 313
BSTAR          = -.52737E-2
MEAN_MOTION_DOT = -.677543E-2
MEAN_MOTION_DDOT = 0

CCSDS_OMM_VERS = 2.0
CREATION_DATE  = 
ORIGINATOR     = 

OBJECT_NAME    = STARLINK-35155
OBJECT_ID      = 2025-225AB
CENTER_NAME    = EARTH
REF_FRAME      = TEME
TIME_SYSTEM    = UTC
MEAN_ELEMENT_THEORY = SGP/SGP4

EPOCH          = 2025-10-27T20:41:23.358624
MEAN_MOTION    = 15.73245777
ECCENTRICITY   = .0001487
INCLINATION    = 53.1597
RA_OF_ASC_NODE = 66.0658
ARG_OF_PERICENTER = 43.8627
MEAN_ANOMALY   = 316.2510

EPHEMERIS_TYPE = 0
CLASSIFICATION_TYPE = U
NORAD_CAT_ID   = 65935
ELEMENT_SET_NO = 999
REV_AT_EPOCH   = 313
BSTAR          = -.1877E-2
MEAN_MOTION_DOT = -.256698E-2
MEAN_MOTION_DDOT = 0

CCSDS_OMM_VERS = 2.0
CREATION_DATE  = 
ORIGINATOR     = 

OBJECT_NAME    = STARLINK-35161
OBJECT_ID      = 2025-225AC
CENTER_NAME    = EARTH
REF_FRAME      = TEME
TIME_SYSTEM    = UTC
MEAN_ELEMENT_THEORY = SGP/SGP4

EPOCH          = 2025-10-27T20:00:01.000224
MEAN_MOTION    = 15.72492775
ECCENTRICITY   = .0001326
INCLINATION    = 53.1590
RA_OF_ASC_NODE = 66.2025
ARG_OF_PERICENTER = 82.8108
MEAN_ANOMALY   = 118.2034

EPHEMERIS_TYPE = 0
CLASSIFICATION_TYPE = U
NORAD_CAT_ID   = 65936
ELEMENT_SET_NO = 999
REV_AT_EPOCH   = 405
BSTAR          = -.15872E-1
MEAN_MOTION_DOT = -.1881097E-1
MEAN_MOTION_DDOT = 0

CCSDS_OMM_VERS = 2.0
CREATION_DATE  = 
ORIGINATOR     = 

OBJECT_NAME    = STARLINK-35473
OBJECT_ID      = 2025-225AD
CENTER_NAME    = EARTH
REF_FRAME      = TEME
TIME_SYSTEM    = UTC
MEAN_ELEMENT_THEORY = SGP/SGP4

EPOCH          = 2025-10-27T19:08:26.838240
MEAN_MOTION    = 15.73110321
ECCENTRICITY   = .0001372
INCLINATION    = 53.1595
RA_OF_ASC_NODE = 66.3745
ARG_OF_PERICENTER = 185.1591
MEAN_ANOMALY   = 174.9414

EPHEMERIS_TYPE = 0
CLASSIFICATION_TYPE = U
NORAD_CAT_ID   = 65937
ELEMENT_SET_NO = 999
REV_AT_EPOCH   = 312
BSTAR          = -.64118E-2
MEAN_MOTION_DOT = -.814815E-2
MEAN_MOTION_DDOT = 0

CCSDS_OMM_VERS = 2.0
CREATION_DATE  = 
ORIGINATOR     = 

OBJECT_NAME    = 2025-226A
OBJECT_ID      = 2025-226A
CENTER_NAME    = EARTH
REF_FRAME      = TEME
TIME_SYSTEM    = UTC
MEAN_ELEMENT_THEORY = SGP/SGP4

EPOCH          = 2025-10-27T21:21:27.226080
MEAN_MOTION    = 15.11747795
ECCENTRICITY   = .0014495
INCLINATION    = 97.6664
RA_OF_ASC_NODE = 15.0689
ARG_OF_PERICENTER = 223.4085
MEAN_ANOMALY   = 136.6004

EPHEMERIS_TYPE = 0
CLASSIFICATION_TYPE = U
NORAD_CAT_ID   = 65938
ELEMENT_SET_NO = 999
REV_AT_EPOCH   = 254
BSTAR          = .6734E-3
MEAN_MOTION_DOT = .11452E-3
MEAN_MOTION_DDOT = 0

CCSDS_OMM_VERS = 2.0
CREATION_DATE  = 
ORIGINATOR     = 

OBJECT_NAME    = 2025-226B
OBJECT_ID      = 2025-226B
CENTER_NAME    = EARTH
REF_FRAME      = TEME
TIME_SYSTEM    = UTC
MEAN_ELEMENT_THEORY = SGP/SGP4

EPOCH          = 2025-10-27T20:11:06.197280
MEAN_MOTION    = 15.09640740
ECCENTRICITY   = .0020581
INCLINATION    = 97.6619
RA_OF_ASC_NODE = 14.9716
ARG_OF_PERICENTER = 227.2120
MEAN_ANOMALY   = 132.7378

EPHEMERIS_TYPE = 0
CLASSIFICATION_TYPE = U
NORAD_CAT_ID   = 65939
ELEMENT_SET_NO = 999
REV_AT_EPOCH   = 252
BSTAR          = .4204E-3
MEAN_MOTION_DOT = .6732E-4
MEAN_MOTION_DDOT = 0

CCSDS_OMM_VERS = 2.0
CREATION_DATE  = 
ORIGINATOR     = 

OBJECT_NAME    = 2025-226C
OBJECT_ID      = 2025-226C
CENTER_NAME    = EARTH
REF_FRAME      = TEME
TIME_SYSTEM    = UTC
MEAN_ELEMENT_THEORY = SGP/SGP4

EPOCH          = 2025-10-27T21:23:14.229024
MEAN_MOTION    = 15.11636029
ECCENTRICITY   = .0014458
INCLINATION    = 97.6573
RA_OF_ASC_NODE = 15.0495
ARG_OF_PERICENTER = 221.3000
MEAN_ANOMALY   = 138.7138

EPHEMERIS_TYPE = 0
CLASSIFICATION_TYPE = U
NORAD_CAT_ID   = 65940
ELEMENT_SET_NO = 999
REV_AT_EPOCH   = 253
BSTAR          = .68292E-3
MEAN_MOTION_DOT = .11579E-3
MEAN_MOTION_DDOT = 0

CCSDS_OMM_VERS = 2.0
CREATION_DATE  = 
ORIGINATOR     = 

OBJECT_NAME    = YOTSUBA-KULOVER
OBJECT_ID      = 1998-067XN
CENTER_NAME    = EARTH
REF_FRAME      = TEME
TIME_SYSTEM    = UTC
MEAN_ELEMENT_THEORY = SGP/SGP4

EPOCH          = 2025-10-27T06:34:59.783520
MEAN_MOTION    = 15.52592485
ECCENTRICITY   = .00024488
INCLINATION    = 51.6336
RA_OF_ASC_NODE = 12.2607
ARG_OF_PERICENTER = 315.8406
MEAN_ANOMALY   = 44.2388

EPHEMERIS_TYPE = 0
CLASSIFICATION_TYPE = U
NORAD_CAT_ID   = 65941
ELEMENT_SET_NO = 999
REV_AT_EPOCH   = 262
BSTAR          = .8072716E-3
MEAN_MOTION_DOT = .50396E-3
MEAN_MOTION_DDOT = 0

CCSDS_OMM_VERS = 2.0
CREATION_DATE  = 
ORIGINATOR     = 

OBJECT_NAME    = BOTAN
OBJECT_ID      = 1998-067XP
CENTER_NAME    = EARTH
REF_FRAME      = TEME
TIME_SYSTEM    = UTC
MEAN_ELEMENT_THEORY = SGP/SGP4

EPOCH          = 2025-10-27T04:57:22.682592
MEAN_MOTION    = 15.53223057
ECCENTRICITY   = .00043408
INCLINATION    = 51.6340
RA_OF_ASC_NODE = 12.5584
ARG_OF_PERICENTER = 338.3786
MEAN_ANOMALY   = 21.7021

EPHEMERIS_TYPE = 0
CLASSIFICATION_TYPE = U
NORAD_CAT_ID   = 65942
ELEMENT_SET_NO = 999
REV_AT_EPOCH   = 261
BSTAR          = .10632931E-2
MEAN_MOTION_DOT = .68238E-3
MEAN_MOTION_DDOT = 0

