STARLINK-35526          
1 65931U 25225X   25300.86311837 -.00700118  00000+0 -54807-2 0  9991
2 65931  53.1599  66.0723 0000564 149.2734 210.8318 15.72915297  4024
STARLINK-35436          
1 65932U 25225Y   25300.86276847 -.00194702  00000+0 -14136-2 0  9990
2 65932  53.1595  66.0712 0002551  80.5712 279.5596 15.73218229  4022
STARLINK-35192          
1 65933U 25225Z   25300.73467679 -.00686836  00000+0 -52715-2 0  9991
2 65933  53.1599  66.6926 0001916  34.1959 325.9183 15.73326804  4007
STARLINK-33921          
1 65934U 25225AA  25300.86242499 -.00677543  00000+0 -52737-2 0  9996
2 65934  53.1595  66.0692 0004292 208.2132 151.8655 15.72951301  3133
STARLINK-35155          
1 65935U 25225AB  25300.86207591 -.00256698  00000+0 -18770-2 0  9994
2 65935  53.1597  66.0658 0001487  43.8627 316.2510 15.73245777  3134
STARLINK-35161          
1 65936U 25225AC  25300.83334491 -.01881097  00000+0 -15872-1 0  9999
2 65936  53.1590  66.2025 0001326  82.8108 118.2034 15.72492775  4051
STARLINK-35473          
1 65937U 25225AD  25300.79753285 -.00814815  00000+0 -64118-2 0  9992
2 65937  53.1595  66.3745 0001372 185.1591 174.9414 15.73110321  3124
2025-226A               
1 65938U 25226A   25300.88989845  .00011452  00000+0  67340-3 0  9992
2 65938  97.6664  15.0689 0014495 223.4085 136.6004 15.11747795  2545
2025-226B               
1 65939U 25226B   25300.84104395  .00006732  00000+0  42040-3 0  9993
2 65939  97.6619  14.9716 0020581 227.2120 132.7378 15.09640740  2528
2025-226C               
1 65940U 25226C   25300.89113691  .00011579  00000+0  68292-3 0  9991
2 65940  97.6573  15.0495 0014458 221.3000 138.7138 15.11636029  2532
YOTSUBA-KULOVER         
1 65941U 98067XN  25300.27430305  .00050396  00000+0  80727-3 0  9998
2 65941  51.6336  12.2607 0002448 315.8406  44.2388 15.52592485  2629
BOTAN                   
1 65942U 98067XP  25300.20651253  .00068238  00000+0  10633-2 0  9991
2 65942  51.6340  12.5584 0004340 338.3786  21.7021 15.53223057  2616
